[Satellite]
VERSION=1.1
NAME=SL-16 R/B
NICKNAME=SL-16 R/B
TLE1=1 16182U 85097B   15055.28943009  .00000012  00000-0  30107-4 0  9996
TLE2=2 16182  71.0063 343.5032 0010083 279.0988 240.8671 14.16157896516741
